NORAD_CAT_ID,OBJECT_NAME,OBJECT_TYPE,EPOCH,MEAN_MOTION,ECCENTRICITY,INCLINATION,RA_OF_ASC_NODE,ARG_OF_PERICENTER,MEAN_ANOMALY,BSTAR,MEAN_MOTION_DOT,MEAN_MOTION_DDOT,TLE_LINE0,TLE_LINE1,TLE_LINE2,SEMIMAJOR_AXIS,PERIOD,APOGEE,PERIGEE,DECAYED
53902.0,STARLINK-5021,PAYLOAD,2022-11-24 22:00:00,15.7320495,0.0008215,53.2135,311.008,287.8037,238.916,0.00022741,0.00031474,0.0,0 STARLINK-5021,1 53902U 22119S   22328.91667824  .00031474  00000-0  22741-3 0  9992,2 53902  53.2135 311.0080 0008215 287.8037 238.9160 15.73204950  1303,6727.880999999999,91.533,355.273,344.219,0.0
53902.0,STARLINK-5021,PAYLOAD,2022-11-25 06:00:00,15.73196978,0.000823,53.2133,309.3604,290.2186,325.4601,0.000149,0.0002037,0.0,0 STARLINK-5021,1 53902U 22119S   22329.25001157  .00020370  00000-0  14900-3 0  9992,2 53902  53.2133 309.3604 0008230 290.2186 325.4601 15.73196978 10080,6727.904,91.533,355.306,344.232,0.0
53902.0,STARLINK-5021,PAYLOAD,2022-11-25 14:00:01,15.73277877,0.0008246,53.2128,307.71,289.5198,55.0912,-0.00065906,-0.00092636,0.0,0 STARLINK-5021,1 53902U 22119S   22329.58334491 -.00092636  00000-0 -65906-3 0  9996,2 53902  53.2128 307.7100 0008246 289.5198  55.0912 15.73277877  1302,6727.6730000000025,91.529,355.086,343.991,0.0
53902.0,STARLINK-5021,PAYLOAD,2022-11-25 22:00:00,15.73190816,0.0008109,53.2132,306.059,287.6439,145.955,0.00064574,0.00091112,0.0,0 STARLINK-5021,1 53902U 22119S   22329.91667824  .00091112  00000-0  64574-3 0  9998,2 53902  53.2132 306.0590 0008109 287.6439 145.9550 15.73190816  1301,6727.920999999999,91.534,355.242,344.331,0.0
53902.0,STARLINK-5021,PAYLOAD,2022-11-26 12:00:00,15.7325272,0.0008208,53.2133,303.1740000000001,289.3289,209.9499,-0.00034536,-0.00049035,0.0,0 STARLINK-5021,1 53902U 22119S   22330.50001157 -.00049035  00000-0 -34536-3 0  9990,2 53902  53.2133 303.1740 0008208 289.3289 209.9499 15.73252720 10282,6727.745,91.53,355.13199999999995,344.088,0.0
53902.0,STARLINK-5021,PAYLOAD,2022-11-26 14:00:01,15.73279917,0.0008199,53.2134,302.7609,288.385,323.1295,-0.0008763,-0.00122545,0.0,0 STARLINK-5021,1 53902U 22119S   22330.58334491 -.00122545  00000-0 -87630-3 0  9999,2 53902  53.2134 302.7609 0008199 288.3850 323.1295 15.73279917  1307,6727.667,91.529,355.048,344.016,0.0
53902.0,STARLINK-5021,PAYLOAD,2022-11-26 22:00:00,15.73177382,0.0008083,53.2137,301.1101,286.6508,53.8344,-4.6545e-05,-7.165e-05,0.0,0 STARLINK-5021,1 53902U 22119S   22330.91667824 -.00007165  00000-0 -46545-4 0  9996,2 53902  53.2137 301.1101 0008083 286.6508  53.8344 15.73177382  1308,6727.96,91.534,355.26300000000015,344.386,0.0
53902.0,STARLINK-5021,PAYLOAD,2022-11-27 14:00:01,15.73176484,0.0008183,53.2137,297.8122,288.0355,230.2205,9.9769e-05,0.00013407,0.0,0 STARLINK-5021,1 53902U 22119S   22331.58334491  .00013407  00000-0  99769-4 0  9991,2 53902  53.2137 297.8122 0008183 288.0355 230.2205 15.73176484  1308,6727.962,91.535,355.333,344.32199999999995,0.0
53902.0,STARLINK-5021,PAYLOAD,2022-11-27 22:00:00,15.7322019,0.0008061,53.2146,296.1619,286.8721,320.2745,-0.00025326,-0.00036128,0.0,0 STARLINK-5021,1 53902U 22119S   22331.91667824 -.00036128  00000-0 -25326-3 0  9991,2 53902  53.2146 296.1619 0008061 286.8721 320.2745 15.73220190  1302,6727.8380000000025,91.532,355.126,344.279,0.0
53902.0,STARLINK-5021,PAYLOAD,2022-11-28 22:00:01,15.731961800000002,0.0008022,53.2152,291.2134,287.9762,226.024,0.00044314,0.00062126,0.0,0 STARLINK-5021,1 53902U 22119S   22332.91668981  .00062126  00000-0  44314-3 0  9990,2 53902  53.2152 291.2134 0008022 287.9762 226.0240 15.73196180 10664,6727.906,91.533,355.168,344.374,0.0
53902.0,STARLINK-5021,PAYLOAD,2022-11-29 14:00:01,15.73186542,0.0008083999999999,53.2143,287.9149,287.5919,44.331,-0.00025248,-0.00035968,0.0,0 STARLINK-5021,1 53902U 22119S   22333.58335648 -.00035968  00000-0 -25248-3 0  9996,2 53902  53.2143 287.9149 0008084 287.5919  44.3310 15.73186542 10761,6727.934,91.534,355.237,344.36,0.0
53902.0,STARLINK-5021,PAYLOAD,2022-11-29 22:00:00,15.73181757,0.0008023999999999,53.2145,286.265,287.1285,133.6204,0.00042858,0.00060012,0.0,0 STARLINK-5021,1 53902U 22119S   22333.91667824  .00060012  00000-0  42858-3 0  9999,2 53902  53.2145 286.2650 0008024 287.1285 133.6204 15.73181757 10822,6727.946999999999,91.534,355.211,344.414,0.0
53902.0,STARLINK-5021,PAYLOAD,2022-11-30 14:00:01,15.73207604,0.0008128,53.215,282.9662,288.5886,310.1094,0.00021178,0.00029262,0.0,0 STARLINK-5021,1 53902U 22119S   22334.58335648  .00029262  00000-0  21178-3 0  9993,2 53902  53.2150 282.9662 0008128 288.5886 310.1094 15.73207604 10921,6727.873000000001,91.533,355.207,344.27,0.0
53902.0,STARLINK-5021,PAYLOAD,2022-11-30 22:00:00,15.73355522,0.0008074,53.2162,281.3154,287.3916,40.167,-0.0025019,-0.00341113,0.0,0 STARLINK-5021,1 53902U 22119S   22334.91667824 -.00341113  00000-0 -25019-2 0  9995,2 53902  53.2162 281.3154 0008074 287.3916  40.1670 15.73355522  1309,6727.4519999999975,91.524,354.749,343.885,0.0
53902.0,STARLINK-5021,PAYLOAD,2022-12-01 06:00:00,15.73006937,0.0008162,53.2172,279.6682,289.1419,127.4063,0.0021057,0.00303717,0.0,0 STARLINK-5021,1 53902U 22119S   22335.25001157  .00303717  00000-0  21057-2 0  9998,2 53902  53.2172 279.6682 0008162 289.1419 127.4063 15.73006937 11020,6728.446,91.544,355.802,344.819,0.0
53902.0,STARLINK-5021,PAYLOAD,2022-12-01 14:00:01,15.73198071,0.0008127,53.2142,278.0172,288.1264,217.3236,0.0003619,0.00050558,0.0,0 STARLINK-5021,1 53902U 22119S   22335.58334491  .00050558  00000-0  36190-3 0  9991,2 53902  53.2142 278.0172 0008127 288.1264 217.3236 15.73198071  1304,6727.901,91.533,355.233,344.298,0.0
53902.0,STARLINK-5021,PAYLOAD,2022-12-01 20:00:01,15.73248846,0.0007977,53.2142,276.7793,287.3594,194.8485,3.6238e-05,4.477e-05,0.0,0 STARLINK-5021,1 53902U 22119S   22335.83335648  .00004477  00000-0  36238-4 0  9997,2 53902  53.2142 276.7793 0007977 287.3594 194.8485 15.73248846 11129,6727.755999999999,91.53,354.98800000000006,344.254,0.0
53902.0,STARLINK-5021,PAYLOAD,2022-12-01 22:00:00,15.73285184,0.0008003,53.2143,276.3675,287.1662,307.2127,-0.00054729,-0.00077183,0.0,0 STARLINK-5021,1 53902U 22119S   22335.91667824 -.00077183  00000-0 -54729-3 0  9990,2 53902  53.2143 276.3675 0008003 287.1662 307.2127 15.73285184  1308,6727.651999999999,91.528,354.901,344.1330000000001,0.0
53902.0,STARLINK-5021,PAYLOAD,2022-12-02 06:00:00,15.73176876,0.0008119,53.2149,274.7202,288.6387,34.7296,9.9122e-05,0.00013315,0.0,0 STARLINK-5021,1 53902U 22119S   22336.25001157  .00013315  00000-0  99122-4 0  9991,2 53902  53.2149 274.7202 0008119 288.6387  34.7296 15.73176876 11183,6727.9609999999975,91.535,355.289,344.36400000000015,0.0
53902.0,STARLINK-5021,PAYLOAD,2022-12-02 14:00:01,15.73200935,0.0008167,53.2147,273.0681,287.2851,125.0094,6.6932e-05,8.791e-05,0.0,0 STARLINK-5021,1 53902U 22119S   22336.58334491  .00008791  00000-0  66932-4 0  9992,2 53902  53.2147 273.0681 0008167 287.2851 125.0094 15.73200935  1305,6727.893,91.533,355.25199999999984,344.26300000000015,0.0
53902.0,STARLINK-5021,PAYLOAD,2022-12-02 22:00:00,15.73209842,0.0008052,53.2149,271.4183,287.0615,214.1713,-6.8004e-05,-0.00010188,0.0,0 STARLINK-5021,1 53902U 22119S   22336.91667824 -.00010188  00000-0 -68004-4 0  9995,2 53902  53.2149 271.4183 0008052 287.0615 214.1713 15.73209842 11298,6727.8669999999975,91.533,355.149,344.315,0.0
53902.0,STARLINK-5021,PAYLOAD,2022-12-03 14:00:01,15.73190454,0.0008163,53.2145,268.1191,286.9665,32.1112,0.00017912,0.0002462,0.0,0 STARLINK-5021,1 53902U 22119S   22337.58334491  .00024620  00000-0  17912-3 0  9995,2 53902  53.2145 268.1191 0008163 286.9665  32.1112 15.73190454  1302,6727.922,91.534,355.279,344.295,0.0
53902.0,STARLINK-5021,PAYLOAD,2022-12-03 22:00:00,15.73201391,0.0008109,53.2148,266.4698,286.5689,121.4362,-0.0001029,-0.00015078,0.0,0 STARLINK-5021,1 53902U 22119S   22337.91667824 -.00015078  00000-0 -10290-3 0  9992,2 53902  53.2148 266.4698 0008109 286.5689 121.4362 15.73201391  1302,6727.891,91.533,355.212,344.301,0.0
53902.0,STARLINK-5021,PAYLOAD,2022-12-04 06:00:00,15.73197942,0.0008232999999999,53.2148,264.8219,288.0255,208.9047,1.0579000000000003e-05,8.56e-06,0.0,0 STARLINK-5021,1 53902U 22119S   22338.25001157  .00000856  00000-0  10579-4 0  9998,2 53902  53.2148 264.8219 0008233 288.0255 208.9047 15.73197942 11507,6727.901,91.533,355.305,344.227,0.0
53902.0,STARLINK-5021,PAYLOAD,2022-12-04 14:00:01,15.731568,0.0008216,53.2152,263.1702,286.8935,298.9656,0.00053778,0.00075527,0.0,0 STARLINK-5021,1 53902U 22119S   22338.58334491  .00075527  00000-0  53778-3 0  9998,2 53902  53.2152 263.1702 0008216 286.8935 298.9656 15.73156800  1303,6728.018,91.536,355.411,344.356,0.0
53902.0,STARLINK-5021,PAYLOAD,2022-12-04 22:00:00,15.73242595,0.0008131,53.2154,261.5211,287.6084,27.1484,-1.2076e-05,-2.333e-05,0.0,0 STARLINK-5021,1 53902U 22119S   22338.91667824 -.00002333  00000-0 -12076-4 0  9998,2 53902  53.2154 261.5211 0008131 287.6084  27.1484 15.73242595  1300,6727.774,91.531,355.1090000000001,344.168,0.0
53902.0,STARLINK-5021,PAYLOAD,2022-12-05 06:00:00,15.73221916,0.0008191,53.215,259.8729,288.8442,114.9118,0.00020921,0.00028916,0.0,0 STARLINK-5021,1 53902U 22119S   22339.25001157  .00028916  00000-0  20921-3 0  9997,2 53902  53.2150 259.8729 0008191 288.8442 114.9118 15.73221916 11659,6727.833000000001,91.532,355.208,344.18699999999984,0.0
53902.0,STARLINK-5021,PAYLOAD,2022-12-05 14:00:01,15.73185826,0.0008209,53.2149,258.2213,286.4371,206.3625,0.00042478,0.00059486,0.0,0 STARLINK-5021,1 53902U 22119S   22339.58335648  .00059486  00000-0  42478-3 0  9995,2 53902  53.2149 258.2213 0008209 286.4371 206.3625 15.73185826  1302,6727.936,91.534,355.324,344.278,0.0
53902.0,STARLINK-5021,PAYLOAD,2022-12-05 16:00:00,15.73171758,0.0008162,53.2148,257.8087,286.1662,318.8062,0.00076012,0.00107484,0.0,0 STARLINK-5021,1 53902U 22119S   22339.66667824  .00107484  00000-0  76012-3 0  9991,2 53902  53.2148 257.8087 0008162 286.1662 318.8062 15.73171758 11723,6727.976,91.535,355.332,344.349,0.0
